CTC2_L_00608001-01
1 10000U 24192WK  26075.70049769  .00000000  00000+0  00000-0 0  9990
2 10000  65.0000   0.0000 0000000   0.0000   0.0000  5.61059995    14
CTC2_L_00608001-02
1 10001U 24404QJ  26075.70049769  .00000000  00000+0  00000-0 0  9997
2 10001  65.0000   0.0000 0000000   0.0000  36.0000  5.61059995    14
CTC2_L_00608001-03
1 10002U 23289GJ  26075.70049769  .00000000  00000+0  00000-0 0  9998
2 10002  65.0000   0.0000 0000000   0.0000  72.0000  5.61059995    15
CTC2_L_00608001-04
1 10003U 22141VE  26075.70049769  .00000000  00000+0  00000-0 0  9995
2 10003  65.0000   0.0000 0000000   0.0000 108.0000  5.61059995    16
CTC2_L_00608001-05
1 10004U 22599HG  26075.70049769  .00000000  00000+0  00000-0 0  9993
2 10004  65.0000   0.0000 0000000   0.0000 144.0000  5.61059995    17
CTC2_L_00608001-06
1 10005U 26794HK  26075.70049769  .00000000  00000+0  00000-0 0  9995
2 10005  65.0000   0.0000 0000000   0.0000 180.0000  5.61059995    18
CTC2_L_00608001-07
1 10006U 26609GW  26075.70049769  .00000000  00000+0  00000-0 0  9991
2 10006  65.0000   0.0000 0000000   0.0000 216.0000  5.61059995    19
CTC2_L_00608001-08
1 10007U 22827VF  26075.70049769  .00000000  00000+0  00000-0 0  9990
2 10007  65.0000   0.0000 0000000   0.0000 252.0000  5.61059995    10
CTC2_L_00608001-09
1 10008U 26775GN  26075.70049769  .00000000  00000+0  00000-0 0  9997
2 10008  65.0000   0.0000 0000000   0.0000 288.0000  5.61059995    10
CTC2_L_00608001-10
1 10009U 26375PQ  26075.70049769  .00000000  00000+0  00000-0 0  9994
2 10009  65.0000   0.0000 0000000   0.0000 324.0000  5.61059995    12
CTC2_L_00608002-01
1 10010U 25528QW  26075.70049769  .00000000  00000+0  00000-0 0  9995
2 10010  65.0000  30.0000 0000000   0.0000  12.0000  5.61059995    11
CTC2_L_00608002-02
1 10011U 23329VK  26075.70049769  .00000000  00000+0  00000-0 0  9993
2 10011  65.0000  30.0000 0000000   0.0000  48.0000  5.61059995    11
CTC2_L_00608002-03
1 10012U 24851RX  26075.70049769  .00000000  00000+0  00000-0 0  9995
2 10012  65.0000  30.0000 0000000   0.0000  84.0000  5.61059995    12
CTC2_L_00608002-04
1 10013U 25323FY  26075.70049769  .00000000  00000+0  00000-0 0  9991
2 10013  65.0000  30.0000 0000000   0.0000 120.0000  5.61059995    14
CTC2_L_00608002-05
1 10014U 23080HD  26075.70049769  .00000000  00000+0  00000-0 0  9990
2 10014  65.0000  30.0000 0000000   0.0000 156.0000  5.61059995    14
CTC2_L_00608002-06
1 10015U 22506AC  26075.70049769  .00000000  00000+0  00000-0 0  9993
2 10015  65.0000  30.0000 0000000   0.0000 192.0000  5.61059995    15
CTC2_L_00608002-07
1 10016U 26654CK  26075.70049769  .00000000  00000+0  00000-0 0  9992
2 10016  65.0000  30.0000 0000000   0.0000 228.0000  5.61059995    16
CTC2_L_00608002-08
1 10017U 24653JF  26075.70049769  .00000000  00000+0  00000-0 0  9990
2 10017  65.0000  30.0000 0000000   0.0000 264.0000  5.61059995    17
CTC2_L_00608002-09
1 10018U 24680CL  26075.70049769  .00000000  00000+0  00000-0 0  9991
2 10018  65.0000  30.0000 0000000   0.0000 300.0000  5.61059995    19
CTC2_L_00608002-10
1 10019U 26865ES  26075.70049769  .00000000  00000+0  00000-0 0  9999
2 10019  65.0000  30.0000 0000000   0.0000 336.0000  5.61059995    19
CTC2_L_00608003-01
1 10020U 23661XL  26075.70049769  .00000000  00000+0  00000-0 0  9992
2 10020  65.0000  60.0000 0000000   0.0000  24.0000  5.61059995    18
CTC2_L_00608003-02
1 10021U 24310VQ  26075.70049769  .00000000  00000+0  00000-0 0  9995
2 10021  65.0000  60.0000 0000000   0.0000  60.0000  5.61059995    19
CTC2_L_00608003-03
1 10022U 23322RX  26075.70049769  .00000000  00000+0  00000-0 0  9998
2 10022  65.0000  60.0000 0000000   0.0000  96.0000  5.61059995    19
CTC2_L_00608003-04
1 10023U 22845VP  26075.70049769  .00000000  00000+0  00000-0 0  9998
2 10023  65.0000  60.0000 0000000   0.0000 132.0000  5.61059995    11
CTC2_L_00608003-05
1 10024U 25249DM  26075.70049769  .00000000  00000+0  00000-0 0  9990
2 10024  65.0000  60.0000 0000000   0.0000 168.0000  5.61059995    11
CTC2_L_00608003-06
1 10025U 22019RC  26075.70049769  .00000000  00000+0  00000-0 0  9993
2 10025  65.0000  60.0000 0000000   0.0000 204.0000  5.61059995    13
CTC2_L_00608003-07
1 10026U 25816OX  26075.70049769  .00000000  00000+0  00000-0 0  9992
2 10026  65.0000  60.0000 0000000   0.0000 240.0000  5.61059995    14
CTC2_L_00608003-08
1 10027U 22682SP  26075.70049769  .00000000  00000+0  00000-0 0  9991
2 10027  65.0000  60.0000 0000000   0.0000 276.0000  5.61059995    14
CTC2_L_00608003-09
1 10028U 22573HH  26075.70049769  .00000000  00000+0  00000-0 0  9991
2 10028  65.0000  60.0000 0000000   0.0000 312.0000  5.61059995    16
CTC2_L_00608003-10
1 10029U 22909EB  26075.70049769  .00000000  00000+0  00000-0 0  9995
2 10029  65.0000  60.0000 0000000   0.0000 348.0000  5.61059995    16
CTC2_L_00608004-01
1 10030U 26802TN  26075.70049769  .00000000  00000+0  00000-0 0  9993
2 10030  65.0000  90.0000 0000000   0.0000  36.0000  5.61059995    15
CTC2_L_00608004-02
1 10031U 23145ZE  26075.70049769  .00000000  00000+0  00000-0 0  9991
2 10031  65.0000  90.0000 0000000   0.0000  72.0000  5.61059995    16
CTC2_L_00608004-03
1 10032U 22178QT  26075.70049769  .00000000  00000+0  00000-0 0  9997
2 10032  65.0000  90.0000 0000000   0.0000 108.0000  5.61059995    17
CTC2_L_00608004-04
1 10033U 23551QC  26075.70049769  .00000000  00000+0  00000-0 0  9994
2 10033  65.0000  90.0000 0000000   0.0000 144.0000  5.61059995    18
CTC2_L_00608004-05
1 10034U 25047ZI  26075.70049769  .00000000  00000+0  00000-0 0  9997
2 10034  65.0000  90.0000 0000000   0.0000 180.0000  5.61059995    19
CTC2_L_00608004-06
1 10035U 23895SY  26075.70049769  .00000000  00000+0  00000-0 0  9997
2 10035  65.0000  90.0000 0000000   0.0000 216.0000  5.61059995    10
CTC2_L_00608004-07
1 10036U 23518AK  26075.70049769  .00000000  00000+0  00000-0 0  9990
2 10036  65.0000  90.0000 0000000   0.0000 252.0000  5.61059995    11
CTC2_L_00608004-08
1 10037U 25254UT  26075.70049769  .00000000  00000+0  00000-0 0  9990
2 10037  65.0000  90.0000 0000000   0.0000 288.0000  5.61059995    11
CTC2_L_00608004-09
1 10038U 26448OE  26075.70049769  .00000000  00000+0  00000-0 0  9997
2 10038  65.0000  90.0000 0000000   0.0000 324.0000  5.61059995    13
CTC2_L_00608004-10
1 10039U 26892AC  26075.70049769  .00000000  00000+0  00000-0 0  9991
2 10039  65.0000  90.0000 0000000   0.0000   0.0000  5.61059995    15
CTC2_L_00608005-01
1 10040U 24715RE  26075.70049769  .00000000  00000+0  00000-0 0  9995
2 10040  65.0000 120.0000 0000000   0.0000  48.0000  5.61059995    13
CTC2_L_00608005-02
1 10041U 23853TU  26075.70049769  .00000000  00000+0  00000-0 0  9998
2 10041  65.0000 120.0000 0000000   0.0000  84.0000  5.61059995    14
CTC2_L_00608005-03
1 10042U 26657LN  26075.70049769  .00000000  00000+0  00000-0 0  9994
2 10042  65.0000 120.0000 0000000   0.0000 120.0000  5.61059995    16
CTC2_L_00608005-04
1 10043U 22196AZ  26075.70049769  .00000000  00000+0  00000-0 0  9999
2 10043  65.0000 120.0000 0000000   0.0000 156.0000  5.61059995    16
CTC2_L_00608005-05
1 10044U 22321OG  26075.70049769  .00000000  00000+0  00000-0 0  9990
2 10044  65.0000 120.0000 0000000   0.0000 192.0000  5.61059995    17
CTC2_L_00608005-06
1 10045U 25909HE  26075.70049769  .00000000  00000+0  00000-0 0  9996
2 10045  65.0000 120.0000 0000000   0.0000 228.0000  5.61059995    18
CTC2_L_00608005-07
1 10046U 23765SI  26075.70049769  .00000000  00000+0  00000-0 0  9995
2 10046  65.0000 120.0000 0000000   0.0000 264.0000  5.61059995    19
CTC2_L_00608005-08
1 10047U 23539ZA  26075.70049769  .00000000  00000+0  00000-0 0  9995
2 10047  65.0000 120.0000 0000000   0.0000 300.0000  5.61059995    11
CTC2_L_00608005-09
1 10048U 26891PK  26075.70049769  .00000000  00000+0  00000-0 0  9990
2 10048  65.0000 120.0000 0000000   0.0000 336.0000  5.61059995    11
CTC2_L_00608005-10
1 10049U 24959LN  26075.70049769  .00000000  00000+0  00000-0 0  9994
2 10049  65.0000 120.0000 0000000   0.0000  12.0000  5.61059995    13
CTC2_L_00608006-01
1 10050U 23664VJ  26075.70049769  .00000000  00000+0  00000-0 0  9998
2 10050  65.0000 150.0000 0000000   0.0000  60.0000  5.61059995    11
CTC2_L_00608006-02
1 10051U 22289WX  26075.70049769  .00000000  00000+0  00000-0 0  9991
2 10051  65.0000 150.0000 0000000   0.0000  96.0000  5.61059995    11
CTC2_L_00608006-03
1 10052U 22265IR  26075.70049769  .00000000  00000+0  00000-0 0  9996
2 10052  65.0000 150.0000 0000000   0.0000 132.0000  5.61059995    13
CTC2_L_00608006-04
1 10053U 22017OJ  26075.70049769  .00000000  00000+0  00000-0 0  9992
2 10053  65.0000 150.0000 0000000   0.0000 168.0000  5.61059995    13
CTC2_L_00608006-05
1 10054U 22506DP  26075.70049769  .00000000  00000+0  00000-0 0  9996
2 10054  65.0000 150.0000 0000000   0.0000 204.0000  5.61059995    15
CTC2_L_00608006-06
1 10055U 23758AZ  26075.70049769  .00000000  00000+0  00000-0 0  9997
2 10055  65.0000 150.0000 0000000   0.0000 240.0000  5.61059995    16
CTC2_L_00608006-07
1 10056U 25051YK  26075.70049769  .00000000  00000+0  00000-0 0  9996
2 10056  65.0000 150.0000 0000000   0.0000 276.0000  5.61059995    16
CTC2_L_00608006-08
1 10057U 22884IZ  26075.70049769  .00000000  00000+0  00000-0 0  9998
2 10057  65.0000 150.0000 0000000   0.0000 312.0000  5.61059995    18
CTC2_L_00608006-09
1 10058U 24150EA  26075.70049769  .00000000  00000+0  00000-0 0  9997
2 10058  65.0000 150.0000 0000000   0.0000 348.0000  5.61059995    18
CTC2_L_00608006-10
1 10059U 24567TD  26075.70049769  .00000000  00000+0  00000-0 0  9990
2 10059  65.0000 150.0000 0000000   0.0000  24.0000  5.61059995    10
CTC2_L_00608007-01
1 10060U 24313HX  26075.70049769  .00000000  00000+0  00000-0 0  9991
2 10060  65.0000 180.0000 0000000   0.0000  72.0000  5.61059995    18
CTC2_L_00608007-02
1 10061U 23482E   26075.70049769  .00000000  00000+0  00000-0 0  9998
2 10061  65.0000 180.0000 0000000   0.0000 108.0000  5.61059995    19
